[{"OBJECT_NAME":"OBJECT F","OBJECT_ID":"2023-072F","EPOCH":"2026-03-09T23:31:37.259904","MEAN_MOTION":15.29470958,"ECCENTRICITY":0.00062878,"INCLINATION":97.5173,"RA_OF_ASC_NODE":265.798,"ARG_OF_PERICENTER":19.0017,"MEAN_ANOMALY":341.1456,"EPHEMERIS_TYPE":0,"CLASSIFICATION_TYPE":"U","NORAD_CAT_ID":56748,"ELEMENT_SET_NO":999,"REV_AT_EPOCH":15460,"BSTAR":0.00043416252,"MEAN_MOTION_DOT":0.00012341,"MEAN_MOTION_DDOT":0},{"OBJECT_NAME":"STARLINK-30242","OBJECT_ID":"2023-131H","EPOCH":"2026-03-09T05:46:11.392896","MEAN_MOTION":15.27276599,"ECCENTRICITY":0.0001698,"INCLINATION":43.0006,"RA_OF_ASC_NODE":146.1862,"ARG_OF_PERICENTER":280.677,"MEAN_ANOMALY":79.389,"EPHEMERIS_TYPE":0,"CLASSIFICATION_TYPE":"U","NORAD_CAT_ID":57739,"ELEMENT_SET_NO":999,"REV_AT_EPOCH":14018,"BSTAR":0.0035093531,"MEAN_MOTION_DOT":0.00096683,"MEAN_MOTION_DDOT":0}]
